STARLINK-4583           
1 53568U 22101AT  26068.26984999 -.00000770  00000+0 -30319-4 0  9996
2 53568  53.2178  55.8781 0001447  93.4026 266.7132 15.08836843197076
CSC-1                   
1 58022U 23155G   26068.74030489  .00008819  00000+0  54557-3 0  9994
2 58022  97.5446 139.7305 0007504 212.9992 147.0770 15.10035960132723
