[{"OBJECT_NAME":"STARLINK-4583","OBJECT_ID":"2022-101AT","EPOCH":"2026-03-09T06:28:35.039136","MEAN_MOTION":15.08836843,"ECCENTRICITY":0.00014475,"INCLINATION":53.2178,"RA_OF_ASC_NODE":55.8781,"ARG_OF_PERICENTER":93.4026,"MEAN_ANOMALY":266.7132,"EPHEMERIS_TYPE":0,"CLASSIFICATION_TYPE":"U","NORAD_CAT_ID":53568,"ELEMENT_SET_NO":999,"REV_AT_EPOCH":19707,"BSTAR":-3.0318986e-5,"MEAN_MOTION_DOT":-7.7e-6,"MEAN_MOTION_DDOT":0},{"OBJECT_NAME":"CSC-1","OBJECT_ID":"2023-155G","EPOCH":"2026-03-09T17:46:02.342496","MEAN_MOTION":15.1003596,"ECCENTRICITY":0.00075041,"INCLINATION":97.5446,"RA_OF_ASC_NODE":139.7305,"ARG_OF_PERICENTER":212.9992,"MEAN_ANOMALY":147.077,"EPHEMERIS_TYPE":0,"CLASSIFICATION_TYPE":"U","NORAD_CAT_ID":58022,"ELEMENT_SET_NO":999,"REV_AT_EPOCH":13272,"BSTAR":0.00054556609,"MEAN_MOTION_DOT":8.819e-5,"MEAN_MOTION_DDOT":0}]
